STARLINK-31494          
1 59238U 24049H   26068.26348078 -.00002260  00000+0 -72634-4 0  9993
2 59238  43.0015 145.7093 0001179 241.1794 118.8939 15.27577403112348
KUIPER-00208            
1 67775U 26030M   26068.67231509  .00043852  00000+0  13883-2 0  9994
2 67775  51.8846 219.6993 0015525  57.3146 302.9333 15.32208734  5080
